[{"OBJECT_NAME":"OBJECT W","OBJECT_ID":"2023-081W","EPOCH":"2026-03-09T22:48:59.769792","MEAN_MOTION":15.23580425,"ECCENTRICITY":0.00107253,"INCLINATION":97.3003,"RA_OF_ASC_NODE":135.1211,"ARG_OF_PERICENTER":10.0781,"MEAN_ANOMALY":350.0669,"EPHEMERIS_TYPE":0,"CLASSIFICATION_TYPE":"U","NORAD_CAT_ID":56866,"ELEMENT_SET_NO":999,"REV_AT_EPOCH":15291,"BSTAR":0.0003543564,"MEAN_MOTION_DOT":8.423e-5,"MEAN_MOTION_DDOT":0},{"OBJECT_NAME":"STARLINK-30365","OBJECT_ID":"2023-131C","EPOCH":"2026-03-09T22:00:01.999584","MEAN_MOTION":15.11740629,"ECCENTRICITY":0.00010893,"INCLINATION":42.9996,"RA_OF_ASC_NODE":170.4181,"ARG_OF_PERICENTER":243.5279,"MEAN_ANOMALY":327.2322,"EPHEMERIS_TYPE":0,"CLASSIFICATION_TYPE":"U","NORAD_CAT_ID":57734,"ELEMENT_SET_NO":999,"REV_AT_EPOCH":543,"BSTAR":0.080452759,"MEAN_MOTION_DOT":0.01512441,"MEAN_MOTION_DDOT":0}]
